{"type": "FeatureCollection", "features": [ {"type": "Feature", "properties": {"norad_id": 41836, "name": "HIMAWARI-9", "group": "weather", "lat": 0.043576923677341194, "lon": 91.39090366896977, "alt_km": 35789.25404392284, "timestamp": "2025-12-21T14:40:47.553129+00:00", "meta": {"OBJECT_NAME": "HIMAWARI-9", "OBJECT_ID": "2016-064A", "EPOCH": "2025-12-21T05:18:29.712672", "MEAN_MOTION": 1.00270214, "ECCENTRICITY": 0.00014249, "INCLINATION": 0.017, "RA_OF_ASC_NODE": 10.5983, "ARG_OF_PERICENTER": 324.2544, "MEAN_ANOMALY": 335.575, "EPHEMERIS_TYPE": 0, "CLASSIFICATION_TYPE": "U", "NORAD_CAT_ID": 41836, "ELEMENT_SET_NO": 999, "REV_AT_EPOCH": 3342, "BSTAR": 0, "MEAN_MOTION_DOT": 0, "MEAN_MOTION_DDOT": 0}, "tle": {"line1": "1 41836U 16064A   25355.22117723  .00000000  00000+0  00000+0 0  9992", "line2": "2 41836   0.0170  10.5983 0001424 324.2544 335.5750  1.00270214 33420"}}, "geometry": {"type": "Point", "coordinates": [91.39090366896977, 0.043576923677341194]}}, {"type": "Feature", "properties": {"norad_id": 41866, "name": "GOES 16", "group": "weather", "lat": 0.05875017106770624, "lon": -154.0791632226338, "alt_km": 35779.60987543935, "timestamp": "2025-12-21T14:40:47.553142+00:00", "meta": {"OBJECT_NAME": "GOES 16", "OBJECT_ID": "2016-071A", "EPOCH": "2025-12-21T04:08:23.703648", "MEAN_MOTION": 1.0027209, "ECCENTRICITY": 0.00030272, "INCLINATION": 0.076, "RA_OF_ASC_NODE": 101.7906, "ARG_OF_PERICENTER": 164.256, "MEAN_ANOMALY": 141.3798, "EPHEMERIS_TYPE": 0, "CLASSIFICATION_TYPE": "U", "NORAD_CAT_ID": 41866, "ELEMENT_SET_NO": 999, "REV_AT_EPOCH": 3331, "BSTAR": 0, "MEAN_MOTION_DOT": -6.8e-07, "MEAN_MOTION_DDOT": 0}, "tle": {"line1": "1 41866U 16071A   25355.17249657 -.00000068  00000+0  00000+0 0  9994", "line2": "2 41866   0.0760 101.7906 0003027 164.2560 141.3798  1.00272090 33314"}}, "geometry": {"type": "Point", "coordinates": [-154.0791632226338, 0.05875017106770624]}}, {"type": "Feature", "properties": {"norad_id": 41882, "name": "FENGYUN 4A", "group": "weather", "lat": -0.23537988775569849, "lon": 74.30536556517265, "alt_km": 35804.536124461665, "timestamp": "2025-12-21T14:40:47.553157+00:00", "meta": {"OBJECT_NAME": "FENGYUN 4A", "OBJECT_ID": "2016-077A", "EPOCH": "2025-12-19T13:51:06.687072", "MEAN_MOTION": 1.00266581, "ECCENTRICITY": 0.0004506, "INCLINATION": 1.866, "RA_OF_ASC_NODE": 82.3247, "ARG_OF_PERICENTER": 142.8816, "MEAN_ANOMALY": 194.7423, "EPHEMERIS_TYPE": 0, "CLASSIFICATION_TYPE": "U", "NORAD_CAT_ID": 41882, "ELEMENT_SET_NO": 999, "REV_AT_EPOCH": 3312, "BSTAR": 0, "MEAN_MOTION_DOT": -3.34e-06, "MEAN_MOTION_DDOT": 0}, "tle": {"line1": "1 41882U 16077A   25353.57716073 -.00000334  00000+0  00000+0 0  9997", "line2": "2 41882   1.8660  82.3247 0004506 142.8816 194.7423  1.00266581 33125"}}, "geometry": {"type": "Point", "coordinates": [74.30536556517265, -0.23537988775569849]}}, {"type": "Feature", "properties": {"norad_id": 41884, "name": "CYGFM05", "group": "weather", "lat": -11.63713507490006, "lon": -173.69218996550617, "alt_km": 419.4204065841832, "timestamp": "2025-12-21T14:40:47.553170+00:00", "meta": {"OBJECT_NAME": "CYGFM05", "OBJECT_ID": "2016-078A", "EPOCH": "2025-12-21T02:58:55.174080", "MEAN_MOTION": 15.47924637, "ECCENTRICITY": 0.001082, "INCLINATION": 34.9605, "RA_OF_ASC_NODE": 352.3496, "ARG_OF_PERICENTER": 256.6713, "MEAN_ANOMALY": 103.2803, "EPHEMERIS_TYPE": 0, "CLASSIFICATION_TYPE": "U", "NORAD_CAT_ID": 41884, "ELEMENT_SET_NO": 999, "REV_AT_EPOCH": 50106, "BSTAR": 0.00026404734, "MEAN_MOTION_DOT": 0.00014198, "MEAN_MOTION_DDOT": 0}, "tle": {"line1": "1 41884U 16078A   25355.12424970  .00014198  00000+0  26405-3 0  9998", "line2": "2 41884  34.9605 352.3496 0010820 256.6713 103.2803 15.47924637501064"}}, "geometry": {"type": "Point", "coordinates": [-173.69218996550617, -11.63713507490006]}}, {"type": "Feature", "properties": {"norad_id": 41885, "name": "CYGFM04", "group": "weather", "lat": 6.796919584832511, "lon": 133.85143813778018, "alt_km": 415.64755718421566, "timestamp": "2025-12-21T14:40:47.553181+00:00", "meta": {"OBJECT_NAME": "CYGFM04", "OBJECT_ID": "2016-078B", "EPOCH": "2025-12-21T06:13:58.550016", "MEAN_MOTION": 15.5069736, "ECCENTRICITY": 0.00096598, "INCLINATION": 34.9356, "RA_OF_ASC_NODE": 325.9931, "ARG_OF_PERICENTER": 282.3589, "MEAN_ANOMALY": 77.6052, "EPHEMERIS_TYPE": 0, "CLASSIFICATION_TYPE": "U", "NORAD_CAT_ID": 41885, "ELEMENT_SET_NO": 999, "REV_AT_EPOCH": 50126, "BSTAR": 0.00032179169, "MEAN_MOTION_DOT": 0.00019104, "MEAN_MOTION_DDOT": 0}, "tle": {"line1": "1 41885U 16078B   25355.25970544  .00019104  00000+0  32179-3 0  9993", "line2": "2 41885  34.9356 325.9931 0009659 282.3589  77.6052 15.50697360501269"}}, "geometry": {"type": "Point", "coordinates": [133.85143813778018, 6.796919584832511]}}, {"type": "Feature", "properties": {"norad_id": 41886, "name": "CYGFM02", "group": "weather", "lat": -24.18986568340015, "lon": -178.06767687474, "alt_km": 408.19457763503215, "timestamp": "2025-12-21T14:40:47.553191+00:00", "meta": {"OBJECT_NAME": "CYGFM02", "OBJECT_ID": "2016-078C", "EPOCH": "2025-12-21T05:59:35.634336", "MEAN_MOTION": 15.5210181, "ECCENTRICITY": 0.00113315, "INCLINATION": 34.9445, "RA_OF_ASC_NODE": 324.2734, "ARG_OF_PERICENTER": 283.009, "MEAN_ANOMALY": 76.9368, "EPHEMERIS_TYPE": 0, "CLASSIFICATION_TYPE": "U", "NORAD_CAT_ID": 41886, "ELEMENT_SET_NO": 999, "REV_AT_EPOCH": 50139, "BSTAR": 0.00033207589, "MEAN_MOTION_DOT": 0.00020757, "MEAN_MOTION_DDOT": 0}, "tle": {"line1": "1 41886U 16078C   25355.24971799  .00020757  00000+0  33208-3 0  9996", "line2": "2 41886  34.9445 324.2734 0011331 283.0090  76.9368 15.52101810501395"}}, "geometry": {"type": "Point", "coordinates": [-178.06767687474, -24.18986568340015]}}, {"type": "Feature", "properties": {"norad_id": 41887, "name": "CYGFM01", "group": "weather", "lat": -34.68264005213408, "lon": -106.2305947135106, "alt_km": 416.08254933098306, "timestamp": "2025-12-21T14:40:47.553202+00:00", "meta": {"OBJECT_NAME": "CYGFM01", "OBJECT_ID": "2016-078D", "EPOCH": "2025-12-21T07:21:27.055296", "MEAN_MOTION": 15.48520939, "ECCENTRICITY": 0.00105173, "INCLINATION": 34.9439, "RA_OF_ASC_NODE": 353.447, "ARG_OF_PERICENTER": 250.6841, "MEAN_ANOMALY": 109.2744, "EPHEMERIS_TYPE": 0, "CLASSIFICATION_TYPE": "U", "NORAD_CAT_ID": 41887, "ELEMENT_SET_NO": 999, "REV_AT_EPOCH": 50103, "BSTAR": 0.00030906839, "MEAN_MOTION_DOT": 0.00016984, "MEAN_MOTION_DDOT": 0}, "tle": {"line1": "1 41887U 16078D   25355.30656314  .00016984  00000+0  30907-3 0  9997", "line2": "2 41887  34.9439 353.4470 0010517 250.6841 109.2744 15.48520939501030"}}, "geometry": {"type": "Point", "coordinates": [-106.2305947135106, -34.68264005213408]}}, {"type": "Feature", "properties": {"norad_id": 41888, "name": "CYGFM08", "group": "weather", "lat": -5.070668702723979, "lon": -32.961501998023444, "alt_km": 414.8573880451586, "timestamp": "2025-12-21T14:40:47.553213+00:00", "meta": {"OBJECT_NAME": "CYGFM08", "OBJECT_ID": "2016-078E", "EPOCH": "2025-12-21T06:59:16.414944", "MEAN_MOTION": 15.49748097, "ECCENTRICITY": 0.00119421, "INCLINATION": 34.9467, "RA_OF_ASC_NODE": 336.439, "ARG_OF_PERICENTER": 273.0676, "MEAN_ANOMALY": 86.868, "EPHEMERIS_TYPE": 0, "CLASSIFICATION_TYPE": "U", "NORAD_CAT_ID": 41888, "ELEMENT_SET_NO": 999, "REV_AT_EPOCH": 50126, "BSTAR": 0.00032361688, "MEAN_MOTION_DOT": 0.00018591, "MEAN_MOTION_DDOT": 0}, "tle": {"line1": "1 41888U 16078E   25355.29116221  .00018591  00000+0  32362-3 0  9997", "line2": "2 41888  34.9467 336.4390 0011942 273.0676  86.8680 15.49748097501264"}}, "geometry": {"type": "Point", "coordinates": [-32.961501998023444, -5.070668702723979]}}, {"type": "Feature", "properties": {"norad_id": 41890, "name": "CYGFM07", "group": "weather", "lat": -1.3720083199728288, "lon": -38.69640651819825, "alt_km": 412.06825513410695, "timestamp": "2025-12-21T14:40:47.553224+00:00", "meta": {"OBJECT_NAME": "CYGFM07", "OBJECT_ID": "2016-078G", "EPOCH": "2025-12-21T06:57:46.804320", "MEAN_MOTION": 15.50339451, "ECCENTRICITY": 0.00099937, "INCLINATION": 34.9486, "RA_OF_ASC_NODE": 325.3781, "ARG_OF_PERICENTER": 288.0026, "MEAN_ANOMALY": 71.9607, "EPHEMERIS_TYPE": 0, "CLASSIFICATION_TYPE": "U", "NORAD_CAT_ID": 41890, "ELEMENT_SET_NO": 999, "REV_AT_EPOCH": 50128, "BSTAR": 0.00032616541, "MEAN_MOTION_DOT": 0.0001912, "MEAN_MOTION_DDOT": 0}, "tle": {"line1": "1 41890U 16078G   25355.29012505  .00019120  00000+0  32617-3 0  9992", "line2": "2 41890  34.9486 325.3781 0009993 288.0026  71.9607 15.50339451501285"}}, "geometry": {"type": "Point", "coordinates": [-38.69640651819825, -1.3720083199728288]}}, {"type": "Feature", "properties": {"norad_id": 41891, "name": "CYGFM03", "group": "weather", "lat": -5.12612617814051, "lon": 152.57455823119744, "alt_km": 415.4976860853858, "timestamp": "2025-12-21T14:40:47.553234+00:00", "meta": {"OBJECT_NAME": "CYGFM03", "OBJECT_ID": "2016-078H", "EPOCH": "2025-12-21T06:08:26.024064", "MEAN_MOTION": 15.50233466, "ECCENTRICITY": 0.00096589, "INCLINATION": 34.9438, "RA_OF_ASC_NODE": 327.5268, "ARG_OF_PERICENTER": 275.2832, "MEAN_ANOMALY": 84.6788, "EPHEMERIS_TYPE": 0, "CLASSIFICATION_TYPE": "U", "NORAD_CAT_ID": 41891, "ELEMENT_SET_NO": 999, "REV_AT_EPOCH": 50125, "BSTAR": 0.00032410602, "MEAN_MOTION_DOT": 0.00018925, "MEAN_MOTION_DDOT": 0}, "tle": {"line1": "1 41891U 16078H   25355.25585676  .00018925  00000+0  32411-3 0  9997", "line2": "2 41891  34.9438 327.5268 0009658 275.2832  84.6788 15.50233466501255"}}, "geometry": {"type": "Point", "coordinates": [152.57455823119744, -5.12612617814051]}}]}